[

    {
        "APOAPSIS": "35940.472",
        "ARG_OF_PERICENTER": "57.8521",
        "BSTAR": "0.00000000000000",
        "CCSDS_OMM_VERS": "3.0",
        "CENTER_NAME": "EARTH",
        "CLASSIFICATION_TYPE": "U",
        "COMMENT": "GENERATED VIA SPACE-TRACK.ORG API",
        "COUNTRY_CODE": "ITSO",
        "CREATION_DATE": "2024-11-30T03:33:42",
        "DECAY_DATE": null,
        "ECCENTRICITY": "0.00423810",
        "ELEMENT_SET_NO": "999",
        "EPHEMERIS_TYPE": "0",
        "EPOCH": "2024-11-29T14:36:55.112544",
        "FILE": "4567064",
        "GP_ID": "274338374",
        "INCLINATION": "0.4274",
        "LAUNCH_DATE": "2016-08-24",
        "MEAN_ANOMALY": "312.8867",
        "MEAN_ELEMENT_THEORY": "SGP4",
        "MEAN_MOTION": "1.00360023",
        "MEAN_MOTION_DDOT": "0.0000000000000",
        "MEAN_MOTION_DOT": "-0.00000053",
        "NORAD_CAT_ID": "62001",
        "OBJECT_ID": "2016-053T",
        "OBJECT_NAME": "INTELSAT 33E DEB",
        "OBJECT_TYPE": "DEBRIS",
        "ORIGINATOR": "18 SPCS",
        "PERIAPSIS": "35583.285",
        "PERIOD": "1434.834",
        "RA_OF_ASC_NODE": "349.6534",
        "RCS_SIZE": null,
        "REF_FRAME": "TEME",
        "REV_AT_EPOCH": "42",
        "SEMIMAJOR_AXIS": "42140.014",
        "SITE": "FRGUI",
        "TIME_SYSTEM": "UTC",
        "TLE_LINE0": "0 INTELSAT 33E DEB",
        "TLE_LINE1": "1 62001U 16053T   24334.60897121 -.00000053  00000-0  00000-0 0  9993",
        "TLE_LINE2": "2 62001   0.4274 349.6534 0042381  57.8521 312.8867  1.00360023   424"
    },
    {
        "APOAPSIS": "35891.139",
        "ARG_OF_PERICENTER": "160.6972",
        "BSTAR": "0.00000000000000",
        "CCSDS_OMM_VERS": "3.0",
        "CENTER_NAME": "EARTH",
        "CLASSIFICATION_TYPE": "U",
        "COMMENT": "GENERATED VIA SPACE-TRACK.ORG API",
        "COUNTRY_CODE": "ITSO",
        "CREATION_DATE": "2024-11-28T03:46:21",
        "DECAY_DATE": null,
        "ECCENTRICITY": "0.00251070",
        "ELEMENT_SET_NO": "999",
        "EPHEMERIS_TYPE": "0",
        "EPOCH": "2024-11-27T15:47:11.376384",
        "FILE": "4565219",
        "GP_ID": "274185332",
        "INCLINATION": "0.1035",
        "LAUNCH_DATE": "2016-08-24",
        "MEAN_ANOMALY": "93.9203",
        "MEAN_ELEMENT_THEORY": "SGP4",
        "MEAN_MOTION": "1.00276486",
        "MEAN_MOTION_DDOT": "0.0000000000000",
        "MEAN_MOTION_DOT": "0.00000103",
        "NORAD_CAT_ID": "62002",
        "OBJECT_ID": "2016-053U",
        "OBJECT_NAME": "INTELSAT 33E DEB",
        "OBJECT_TYPE": "DEBRIS",
        "ORIGINATOR": "18 SPCS",
        "PERIAPSIS": "35679.419",
        "PERIOD": "1436.030",
        "RA_OF_ASC_NODE": "105.1233",
        "RCS_SIZE": null,
        "REF_FRAME": "TEME",
        "REV_AT_EPOCH": "39",
        "SEMIMAJOR_AXIS": "42163.414",
        "SITE": "FRGUI",
        "TIME_SYSTEM": "UTC",
        "TLE_LINE0": "0 INTELSAT 33E DEB",
        "TLE_LINE1": "1 62002U 16053U   24332.65777056  .00000103  00000-0  00000-0 0  9996",
        "TLE_LINE2": "2 62002   0.1035 105.1233 0025107 160.6972  93.9203  1.00276486   394"
    },
    {
        "APOAPSIS": "35817.735",
        "ARG_OF_PERICENTER": "169.4602",
        "BSTAR": "0.00000000000000",
        "CCSDS_OMM_VERS": "3.0",
        "CENTER_NAME": "EARTH",
        "CLASSIFICATION_TYPE": "U",
        "COMMENT": "GENERATED VIA SPACE-TRACK.ORG API",
        "COUNTRY_CODE": "ITSO",
        "CREATION_DATE": "2024-11-30T03:33:42",
        "DECAY_DATE": null,
        "ECCENTRICITY": "0.00195780",
        "ELEMENT_SET_NO": "999",
        "EPHEMERIS_TYPE": "0",
        "EPOCH": "2024-11-29T13:33:25.252704",
        "FILE": "4567064",
        "GP_ID": "274338375",
        "INCLINATION": "0.2035",
        "LAUNCH_DATE": "2016-08-24",
        "MEAN_ANOMALY": "57.8614",
        "MEAN_ELEMENT_THEORY": "SGP4",
        "MEAN_MOTION": "1.00455101",
        "MEAN_MOTION_DDOT": "0.0000000000000",
        "MEAN_MOTION_DOT": "-0.00000215",
        "NORAD_CAT_ID": "62003",
        "OBJECT_ID": "2016-053V",
        "OBJECT_NAME": "INTELSAT 33E DEB",
        "OBJECT_TYPE": "DEBRIS",
        "ORIGINATOR": "18 SPCS",
        "PERIAPSIS": "35652.835",
        "PERIOD": "1433.476",
        "RA_OF_ASC_NODE": "132.5195",
        "RCS_SIZE": null,
        "REF_FRAME": "TEME",
        "REV_AT_EPOCH": "40",
        "SEMIMAJOR_AXIS": "42113.420",
        "SITE": "FRGUI",
        "TIME_SYSTEM": "UTC",
        "TLE_LINE0": "0 INTELSAT 33E DEB",
        "TLE_LINE1": "1 62003U 16053V   24334.56487561 -.00000215  00000-0  00000-0 0  9993",
        "TLE_LINE2": "2 62003   0.2035 132.5195 0019578 169.4602  57.8614  1.00455101   409"
    },
    {
        "APOAPSIS": "35967.197",
        "ARG_OF_PERICENTER": "220.5127",
        "BSTAR": "0.00000000000000",
        "CCSDS_OMM_VERS": "3.0",
        "CENTER_NAME": "EARTH",
        "CLASSIFICATION_TYPE": "U",
        "COMMENT": "GENERATED VIA SPACE-TRACK.ORG API",
        "COUNTRY_CODE": "ITSO",
        "CREATION_DATE": "2024-11-30T03:33:42",
        "DECAY_DATE": null,
        "ECCENTRICITY": "0.01998430",
        "ELEMENT_SET_NO": "999",
        "EPHEMERIS_TYPE": "0",
        "EPOCH": "2024-11-29T02:36:09.343008",
        "FILE": "4567064",
        "GP_ID": "274338854",
        "INCLINATION": "1.5114",
        "LAUNCH_DATE": "2016-08-24",
        "MEAN_ANOMALY": "138.4656",
        "MEAN_ELEMENT_THEORY": "SGP4",
        "MEAN_MOTION": "1.02632446",
        "MEAN_MOTION_DDOT": "0.0000000000000",
        "MEAN_MOTION_DOT": "-0.00000119",
        "NORAD_CAT_ID": "62004",
        "OBJECT_ID": "2016-053W",
        "OBJECT_NAME": "INTELSAT 33E DEB",
        "OBJECT_TYPE": "DEBRIS",
        "ORIGINATOR": "18 SPCS",
        "PERIAPSIS": "34307.874",
        "PERIOD": "1403.065",
        "RA_OF_ASC_NODE": "154.6837",
        "RCS_SIZE": null,
        "REF_FRAME": "TEME",
        "REV_AT_EPOCH": "41",
        "SEMIMAJOR_AXIS": "41515.670",
        "SITE": "FRGUI",
        "TIME_SYSTEM": "UTC",
        "TLE_LINE0": "0 INTELSAT 33E DEB",
        "TLE_LINE1": "1 62004U 16053W   24334.10844147 -.00000119  00000-0  00000-0 0  9994",
        "TLE_LINE2": "2 62004   1.5114 154.6837 0199843 220.5127 138.4656  1.02632446   419"
    },
    {
        "APOAPSIS": "35854.511",
        "ARG_OF_PERICENTER": "178.7061",
        "BSTAR": "0.00000000000000",
        "CCSDS_OMM_VERS": "3.0",
        "CENTER_NAME": "EARTH",
        "CLASSIFICATION_TYPE": "U",
        "COMMENT": "GENERATED VIA SPACE-TRACK.ORG API",
        "COUNTRY_CODE": "ITSO",
        "CREATION_DATE": "2024-11-30T03:33:42",
        "DECAY_DATE": null,
        "ECCENTRICITY": "0.03004430",
        "ELEMENT_SET_NO": "999",
        "EPHEMERIS_TYPE": "0",
        "EPOCH": "2024-11-28T21:17:09.365280",
        "FILE": "4567064",
        "GP_ID": "274338376",
        "INCLINATION": "0.4896",
        "LAUNCH_DATE": "2016-08-24",
        "MEAN_ANOMALY": "31.3440",
        "MEAN_ELEMENT_THEORY": "SGP4",
        "MEAN_MOTION": "1.04571703",
        "MEAN_MOTION_DDOT": "0.0000000000000",
        "MEAN_MOTION_DOT": "-0.00000044",
        "NORAD_CAT_ID": "62005",
        "OBJECT_ID": "2016-053X",
        "OBJECT_NAME": "INTELSAT 33E DEB",
        "OBJECT_TYPE": "DEBRIS",
        "ORIGINATOR": "18 SPCS",
        "PERIAPSIS": "33390.830",
        "PERIOD": "1377.046",
        "RA_OF_ASC_NODE": "148.1388",
        "RCS_SIZE": null,
        "REF_FRAME": "TEME",
        "REV_AT_EPOCH": "40",
        "SEMIMAJOR_AXIS": "41000.805",
        "SITE": "FRGUI",
        "TIME_SYSTEM": "UTC",
        "TLE_LINE0": "0 INTELSAT 33E DEB",
        "TLE_LINE1": "1 62005U 16053X   24333.88691395 -.00000044  00000-0  00000-0 0  9991",
        "TLE_LINE2": "2 62005   0.4896 148.1388 0300443 178.7061  31.3440  1.04571703   406"
    }
]